[{"OBJECT_NAME":"SL-8 R/B","OBJECT_ID":"1979-089B","EPOCH":"2026-03-05T12:20:59.730144","MEAN_MOTION":14.42347568,"ECCENTRICITY":0.00171402,"INCLINATION":74.0672,"RA_OF_ASC_NODE":98.7734,"ARG_OF_PERICENTER":271.8665,"MEAN_ANOMALY":88.0529,"EPHEMERIS_TYPE":0,"CLASSIFICATION_TYPE":"U","NORAD_CAT_ID":11574,"ELEMENT_SET_NO":999,"REV_AT_EPOCH":43550,"BSTAR":0.00012143396,"MEAN_MOTION_DOT":3.75e-6,"MEAN_MOTION_DDOT":0},{"OBJECT_NAME":"SL-14 R/B","OBJECT_ID":"1980-005B","EPOCH":"2026-03-05T15:12:31.797504","MEAN_MOTION":14.90925035,"ECCENTRICITY":0.0015831,"INCLINATION":82.5153,"RA_OF_ASC_NODE":311.0835,"ARG_OF_PERICENTER":171.4086,"MEAN_ANOMALY":188.7408,"EPHEMERIS_TYPE":0,"CLASSIFICATION_TYPE":"U","NORAD_CAT_ID":11672,"ELEMENT_SET_NO":999,"REV_AT_EPOCH":47588,"BSTAR":7.7042608e-5,"MEAN_MOTION_DOT":7.87e-6,"MEAN_MOTION_DDOT":0},{"OBJECT_NAME":"SL-8 R/B","OBJECT_ID":"1981-003B","EPOCH":"2026-03-05T15:06:29.681280","MEAN_MOTION":15.10782534,"ECCENTRICITY":0.02626185,"INCLINATION":82.9382,"RA_OF_ASC_NODE":293.7791,"ARG_OF_PERICENTER":192.7413,"MEAN_ANOMALY":166.7102,"EPHEMERIS_TYPE":0,"CLASSIFICATION_TYPE":"U","NORAD_CAT_ID":12139,"ELEMENT_SET_NO":999,"REV_AT_EPOCH":31406,"BSTAR":0.00053521873,"MEAN_MOTION_DOT":0.00020779,"MEAN_MOTION_DDOT":0},{"OBJECT_NAME":"SL-3 R/B","OBJECT_ID":"1981-046B","EPOCH":"2026-03-05T15:08:58.514784","MEAN_MOTION":15.4186948,"ECCENTRICITY":0.00199128,"INCLINATION":81.2302,"RA_OF_ASC_NODE":294.6181,"ARG_OF_PERICENTER":36.0727,"MEAN_ANOMALY":324.1855,"EPHEMERIS_TYPE":0,"CLASSIFICATION_TYPE":"U","NORAD_CAT_ID":12465,"ELEMENT_SET_NO":999,"REV_AT_EPOCH":43780,"BSTAR":0.00033663276,"MEAN_MOTION_DOT":0.00014424,"MEAN_MOTION_DDOT":0},{"OBJECT_NAME":"SL-3 R/B","OBJECT_ID":"1981-103B","EPOCH":"2026-03-05T13:30:35.478432","MEAN_MOTION":15.21316164,"ECCENTRICITY":0.0012464,"INCLINATION":81.1581,"RA_OF_ASC_NODE":218.2727,"ARG_OF_PERICENTER":301.451,"MEAN_ANOMALY":58.5502,"EPHEMERIS_TYPE":0,"CLASSIFICATION_TYPE":"U","NORAD_CAT_ID":12904,"ELEMENT_SET_NO":999,"REV_AT_EPOCH":97260,"BSTAR":0.00035676028,"MEAN_MOTION_DOT":8.025e-5,"MEAN_MOTION_DDOT":0},{"OBJECT_NAME":"SL-3 R/B","OBJECT_ID":"1982-013B","EPOCH":"2026-03-05T13:44:42.362592","MEAN_MOTION":15.21964869,"ECCENTRICITY":0.00223995,"INCLINATION":81.1766,"RA_OF_ASC_NODE":165.5946,"ARG_OF_PERICENTER":191.128,"MEAN_ANOMALY":168.946,"EPHEMERIS_TYPE":0,"CLASSIFICATION_TYPE":"U","NORAD_CAT_ID":13068,"ELEMENT_SET_NO":999,"REV_AT_EPOCH":40372,"BSTAR":0.00027201013,"MEAN_MOTION_DOT":6.271e-5,"MEAN_MOTION_DDOT":0},{"OBJECT_NAME":"SL-3 R/B","OBJECT_ID":"1982-039B","EPOCH":"2026-03-05T14:45:19.377504","MEAN_MOTION":15.10052486,"ECCENTRICITY":0.00298269,"INCLINATION":81.1583,"RA_OF_ASC_NODE":220.6597,"ARG_OF_PERICENTER":337.7579,"MEAN_ANOMALY":22.235,"EPHEMERIS_TYPE":0,"CLASSIFICATION_TYPE":"U","NORAD_CAT_ID":13154,"ELEMENT_SET_NO":999,"REV_AT_EPOCH":38102,"BSTAR":0.00023507566,"MEAN_MOTION_DOT":3.886e-5,"MEAN_MOTION_DDOT":0},{"OBJECT_NAME":"SL-3 R/B","OBJECT_ID":"1982-079B","EPOCH":"2026-03-05T14:21:20.678400","MEAN_MOTION":15.24724344,"ECCENTRICITY":0.00248967,"INCLINATION":81.1477,"RA_OF_ASC_NODE":197.9069,"ARG_OF_PERICENTER":178.3632,"MEAN_ANOMALY":181.7688,"EPHEMERIS_TYPE":0,"CLASSIFICATION_TYPE":"U","NORAD_CAT_ID":13403,"ELEMENT_SET_NO":999,"REV_AT_EPOCH":37707,"BSTAR":0.00036111502,"MEAN_MOTION_DOT":9.042e-5,"MEAN_MOTION_DDOT":0},{"OBJECT_NAME":"SL-14 R/B","OBJECT_ID":"1982-092B","EPOCH":"2026-03-05T14:46:33.538080","MEAN_MOTION":14.86661816,"ECCENTRICITY":0.00192431,"INCLINATION":82.5701,"RA_OF_ASC_NODE":145.2097,"ARG_OF_PERICENTER":317.9531,"MEAN_ANOMALY":159.4229,"EPHEMERIS_TYPE":0,"CLASSIFICATION_TYPE":"U","NORAD_CAT_ID":13553,"ELEMENT_SET_NO":999,"REV_AT_EPOCH":32832,"BSTAR":7.3508494e-5,"MEAN_MOTION_DOT":6.79e-6,"MEAN_MOTION_DDOT":0},{"OBJECT_NAME":"SL-3 R/B","OBJECT_ID":"1983-010B","EPOCH":"2026-03-05T13:18:44.196480","MEAN_MOTION":15.46178627,"ECCENTRICITY":0.0018329,"INCLINATION":81.1066,"RA_OF_ASC_NODE":7.3152,"ARG_OF_PERICENTER":64.3601,"MEAN_ANOMALY":295.9534,"EPHEMERIS_TYPE":0,"CLASSIFICATION_TYPE":"U","NORAD_CAT_ID":13819,"ELEMENT_SET_NO":999,"REV_AT_EPOCH":35730,"BSTAR":0.00040596413,"MEAN_MOTION_DOT":0.00020103,"MEAN_MOTION_DDOT":0},{"OBJECT_NAME":"SL-3 R/B","OBJECT_ID":"1983-075B","EPOCH":"2026-03-05T14:08:24.571392","MEAN_MOTION":15.3829892,"ECCENTRICITY":0.00198055,"INCLINATION":97.6138,"RA_OF_ASC_NODE":69.0109,"ARG_OF_PERICENTER":241.9275,"MEAN_ANOMALY":117.9967,"EPHEMERIS_TYPE":0,"CLASSIFICATION_TYPE":"U","NORAD_CAT_ID":14208,"ELEMENT_SET_NO":999,"REV_AT_EPOCH":32952,"BSTAR":0.00036560919,"MEAN_MOTION_DOT":0.00013811,"MEAN_MOTION_DDOT":0},{"OBJECT_NAME":"COSMOS 1536","OBJECT_ID":"1984-013A","EPOCH":"2026-03-05T13:59:18.525984","MEAN_MOTION":15.23762648,"ECCENTRICITY":0.00127407,"INCLINATION":82.5433,"RA_OF_ASC_NODE":111.9331,"ARG_OF_PERICENTER":299.5867,"MEAN_ANOMALY":60.41,"EPHEMERIS_TYPE":0,"CLASSIFICATION_TYPE":"U","NORAD_CAT_ID":14699,"ELEMENT_SET_NO":999,"REV_AT_EPOCH":27199,"BSTAR":0.00030694447,"MEAN_MOTION_DOT":7.429e-5,"MEAN_MOTION_DDOT":0},{"OBJECT_NAME":"SL-14 R/B","OBJECT_ID":"1984-027B","EPOCH":"2026-03-05T14:03:12.348576","MEAN_MOTION":14.85971585,"ECCENTRICITY":0.00177126,"INCLINATION":82.5381,"RA_OF_ASC_NODE":248.8629,"ARG_OF_PERICENTER":351.9513,"MEAN_ANOMALY":8.1417,"EPHEMERIS_TYPE":0,"CLASSIFICATION_TYPE":"U","NORAD_CAT_ID":14820,"ELEMENT_SET_NO":999,"REV_AT_EPOCH":24702,"BSTAR":7.7063876e-5,"MEAN_MOTION_DOT":6.99e-6,"MEAN_MOTION_DDOT":0},{"OBJECT_NAME":"SL-8 R/B","OBJECT_ID":"1985-006B","EPOCH":"2026-03-05T14:54:56.354976","MEAN_MOTION":14.3777933,"ECCENTRICITY":0.00186081,"INCLINATION":74.0432,"RA_OF_ASC_NODE":268.6351,"ARG_OF_PERICENTER":187.3907,"MEAN_ANOMALY":229.2677,"EPHEMERIS_TYPE":0,"CLASSIFICATION_TYPE":"U","NORAD_CAT_ID":15483,"ELEMENT_SET_NO":999,"REV_AT_EPOCH":15344,"BSTAR":8.188391e-5,"MEAN_MOTION_DOT":2.21e-6,"MEAN_MOTION_DDOT":0},{"OBJECT_NAME":"SL-12 R/B(2)","OBJECT_ID":"1985-042D","EPOCH":"2026-03-05T13:18:13.616064","MEAN_MOTION":14.21981266,"ECCENTRICITY":0.00334286,"INCLINATION":71.1063,"RA_OF_ASC_NODE":96.4665,"ARG_OF_PERICENTER":134.9173,"MEAN_ANOMALY":340.1837,"EPHEMERIS_TYPE":0,"CLASSIFICATION_TYPE":"U","NORAD_CAT_ID":15772,"ELEMENT_SET_NO":999,"REV_AT_EPOCH":11380,"BSTAR":8.1140918e-5,"MEAN_MOTION_DOT":1.33e-6,"MEAN_MOTION_DDOT":0},{"OBJECT_NAME":"SL-14 R/B","OBJECT_ID":"1985-069B","EPOCH":"2026-03-05T15:20:01.213152","MEAN_MOTION":14.8642769,"ECCENTRICITY":0.00181107,"INCLINATION":82.5277,"RA_OF_ASC_NODE":28.7415,"ARG_OF_PERICENTER":201.391,"MEAN_ANOMALY":158.6552,"EPHEMERIS_TYPE":0,"CLASSIFICATION_TYPE":"U","NORAD_CAT_ID":15945,"ELEMENT_SET_NO":999,"REV_AT_EPOCH":17223,"BSTAR":8.6875016e-5,"MEAN_MOTION_DOT":7.93e-6,"MEAN_MOTION_DDOT":0},{"OBJECT_NAME":"SL-16 R/B","OBJECT_ID":"1985-097B","EPOCH":"2026-03-05T14:47:55.452192","MEAN_MOTION":14.16599676,"ECCENTRICITY":0.0009963,"INCLINATION":71.0035,"RA_OF_ASC_NODE":149.1289,"ARG_OF_PERICENTER":264.655,"MEAN_ANOMALY":197.2173,"EPHEMERIS_TYPE":0,"CLASSIFICATION_TYPE":"U","NORAD_CAT_ID":16182,"ELEMENT_SET_NO":999,"REV_AT_EPOCH":8665,"BSTAR":-2.13259e-5,"MEAN_MOTION_DOT":-9.0e-7,"MEAN_MOTION_DDOT":0}]
